start=new Date('2021-09-05T00:00:00.000Z').valueOf();
sats=[{"SITE":"AFETR","INCLINATION":"53.0557","OBJECT_TYPE":"PAYLOAD","RCS_SIZE":"LARGE","DECAY_DATE":null,"CLASSIFICATION_TYPE":"U","PERIOD":"95.592","APOAPSIS":"548.764","SEMIMAJOR_AXIS":"6925.332","OBJECT_NAME":"STARLINK-2197","EPHEMERIS_TYPE":"0","COUNTRY_CODE":"US","MEAN_ANOMALY":"269.6901","NORAD_CAT_ID":"47774","ELEMENT_SET_NO":"999","GP_ID":"184104707","MEAN_MOTION_DDOT":"0.0000000000000","TLE_LINE1":"1 47774U 21017BE  21247.68583094  .00001423  00000-0  11439-3 0  9990","OBJECT_ID":"2021-017BE","MEAN_MOTION":"15.06405432","EPOCH":"2021-09-04T16:27:35.793216","FILE":"3108751","TLE_LINE2":"2 47774  53.0557  55.2955 0002263  90.4347 269.6901 15.06405432 29359","RA_OF_ASC_NODE":"55.2955","REV_AT_EPOCH":"2935","MEAN_ELEMENT_THEORY":"SGP4","BSTAR":"0.00011439000000","MEAN_MOTION_DOT":"0.00001423","ECCENTRICITY":"0.00022630","PERIAPSIS":"545.630","LAUNCH_DATE":"2021-03-04","REF_FRAME":"TEME","CENTER_NAME":"EARTH","ARG_OF_PERICENTER":"90.4347","TIME_SYSTEM":"UTC"},{"OBJECT_TYPE":"PAYLOAD","INCLINATION":"53.0562","SITE":"AFETR","APOAPSIS":"548.688","PERIOD":"95.593","CLASSIFICATION_TYPE":"U","DECAY_DATE":null,"RCS_SIZE":"LARGE","MEAN_ANOMALY":"262.1319","COUNTRY_CODE":"US","EPHEMERIS_TYPE":"0","OBJECT_NAME":"STARLINK-2198","SEMIMAJOR_AXIS":"6925.366","NORAD_CAT_ID":"47775","TLE_LINE1":"1 47775U 21017BF  21247.69688300 -.00000700  00000-0 -28118-4 0  9990","MEAN_MOTION_DDOT":"0.0000000000000","GP_ID":"184105958","ELEMENT_SET_NO":"999","FILE":"3108751","EPOCH":"2021-09-04T16:43:30.691200","MEAN_MOTION":"15.06394187","OBJECT_ID":"2021-017BF","LAUNCH_DATE":"2021-03-04","PERIAPSIS":"545.774","ECCENTRICITY":"0.00021040","MEAN_MOTION_DOT":"-0.00000700","BSTAR":"-0.00002811800000","REV_AT_EPOCH":"2940","MEAN_ELEMENT_THEORY":"SGP4","TLE_LINE2":"2 47775  53.0562  55.2625 0002104  97.9909 262.1319 15.06394187 29401","RA_OF_ASC_NODE":"55.2625","TIME_SYSTEM":"UTC","ARG_OF_PERICENTER":"97.9909","CENTER_NAME":"EARTH","REF_FRAME":"TEME"},{"SEMIMAJOR_AXIS":"6925.334","OBJECT_NAME":"STARLINK-2209","COUNTRY_CODE":"US","EPHEMERIS_TYPE":"0","MEAN_ANOMALY":"273.3315","NORAD_CAT_ID":"47776","SITE":"AFETR","INCLINATION":"53.0569","OBJECT_TYPE":"PAYLOAD","RCS_SIZE":"LARGE","DECAY_DATE":null,"CLASSIFICATION_TYPE":"U","PERIOD":"95.592","APOAPSIS":"548.560","RA_OF_ASC_NODE":"46.3242","TLE_LINE2":"2 47776  53.0569  46.3242 0001965  86.7899 273.3315 15.06404713 29477","REV_AT_EPOCH":"2947","MEAN_ELEMENT_THEORY":"SGP4","BSTAR":"0.00007439000000","ECCENTRICITY":"0.00019650","MEAN_MOTION_DOT":"0.00000827","PERIAPSIS":"545.838","LAUNCH_DATE":"2021-03-04","REF_FRAME":"TEME","CENTER_NAME":"EARTH","ARG_OF_PERICENTER":"86.7899","TIME_SYSTEM":"UTC","ELEMENT_SET_NO":"999","MEAN_MOTION_DDOT":"0.0000000000000","GP_ID":"184105709","TLE_LINE1":"1 47776U 21017BG  21247.45822244  .00000827  00000-0  74390-4 0  9993","OBJECT_ID":"2021-017BG","MEAN_MOTION":"15.06404713","EPOCH":"2021-09-04T10:59:50.418816","FILE":"3108751"},{"NORAD_CAT_ID":"47777","MEAN_ANOMALY":"263.2451","SEMIMAJOR_AXIS":"6925.353","OBJECT_NAME":"STARLINK-2210","COUNTRY_CODE":"US","EPHEMERIS_TYPE":"0","RCS_SIZE":"LARGE","DECAY_DATE":null,"CLASSIFICATION_TYPE":"U","PERIOD":"95.592","APOAPSIS":"548.577","OBJECT_TYPE":"PAYLOAD","SITE":"AFETR","INCLINATION":"53.0573","TIME_SYSTEM":"UTC","REF_FRAME":"TEME","CENTER_NAME":"EARTH","ARG_OF_PERICENTER":"96.8761","MEAN_MOTION_DOT":"0.00000835","ECCENTRICITY":"0.00019630","LAUNCH_DATE":"2021-03-04","PERIAPSIS":"545.858","RA_OF_ASC_NODE":"45.1198","TLE_LINE2":"2 47777  53.0573  45.1198 0001963  96.8761 263.2451 15.06398708 29518","MEAN_ELEMENT_THEORY":"SGP4","REV_AT_EPOCH":"2951","BSTAR":"0.00007493400000","OBJECT_ID":"2021-017BH","MEAN_MOTION":"15.06398708","EPOCH":"2021-09-04T17:27:20.147328","FILE":"3108751","GP_ID":"184104957","MEAN_MOTION_DDOT":"0.0000000000000","TLE_LINE1":"1 47777U 21017BH  21247.72731652  .00000835  00000-0  74934-4 0  9999","ELEMENT_SET_NO":"999"},{"MEAN_ANOMALY":"248.3052","OBJECT_NAME":"STARLINK-2211","SEMIMAJOR_AXIS":"6925.355","COUNTRY_CODE":"US","EPHEMERIS_TYPE":"0","NORAD_CAT_ID":"47778","OBJECT_TYPE":"PAYLOAD","INCLINATION":"53.0571","SITE":"AFETR","CLASSIFICATION_TYPE":"U","RCS_SIZE":"LARGE","DECAY_DATE":null,"APOAPSIS":"548.235","PERIOD":"95.592","ECCENTRICITY":"0.00014660","MEAN_MOTION_DOT":"0.00001552","LAUNCH_DATE":"2021-03-04","PERIAPSIS":"546.205","MEAN_ELEMENT_THEORY":"SGP4","REV_AT_EPOCH":"2947","TLE_LINE2":"2 47778  53.0571  46.3271 0001466 111.8093 248.3052 15.06397955 29475","RA_OF_ASC_NODE":"46.3271","BSTAR":"0.00012304000000","TIME_SYSTEM":"UTC","REF_FRAME":"TEME","ARG_OF_PERICENTER":"111.8093","CENTER_NAME":"EARTH","MEAN_MOTION_DDOT":"0.0000000000000","GP_ID":"184105207","TLE_LINE1":"1 47778U 21017BJ  21247.49507910  .00001552  00000-0  12304-3 0  9991","ELEMENT_SET_NO":"999","MEAN_MOTION":"15.06397955","EPOCH":"2021-09-04T11:52:54.834240","OBJECT_ID":"2021-017BJ","FILE":"3108751"},{"ELEMENT_SET_NO":"999","TLE_LINE1":"1 47779U 21017BK  21247.50983751  .00000627  00000-0  60999-4 0  9991","GP_ID":"184105459","MEAN_MOTION_DDOT":"0.0000000000000","FILE":"3108751","OBJECT_ID":"2021-017BK","MEAN_MOTION":"15.06398865","EPOCH":"2021-09-04T12:14:09.960864","BSTAR":"0.00006099900000","TLE_LINE2":"2 47779  53.0559  46.0860 0001734  84.5826 275.5361 15.06398865 29488","RA_OF_ASC_NODE":"46.0860","REV_AT_EPOCH":"2948","MEAN_ELEMENT_THEORY":"SGP4","PERIAPSIS":"546.016","LAUNCH_DATE":"2021-03-04","ECCENTRICITY":"0.00017340","MEAN_MOTION_DOT":"0.00000627","CENTER_NAME":"EARTH","ARG_OF_PERICENTER":"84.5826","REF_FRAME":"TEME","TIME_SYSTEM":"UTC","SITE":"AFETR","INCLINATION":"53.0559","OBJECT_TYPE":"PAYLOAD","PERIOD":"95.592","APOAPSIS":"548.418","RCS_SIZE":"LARGE","DECAY_DATE":null,"CLASSIFICATION_TYPE":"U","COUNTRY_CODE":"US","EPHEMERIS_TYPE":"0","SEMIMAJOR_AXIS":"6925.352","OBJECT_NAME":"STARLINK-2212","MEAN_ANOMALY":"275.5361","NORAD_CAT_ID":"47779"},{"RCS_SIZE":"LARGE","DECAY_DATE":null,"CLASSIFICATION_TYPE":"U","PERIOD":"95.592","APOAPSIS":"548.518","SITE":"AFETR","INCLINATION":"53.0566","OBJECT_TYPE":"PAYLOAD","NORAD_CAT_ID":"47780","SEMIMAJOR_AXIS":"6925.365","OBJECT_NAME":"STARLINK-2213","EPHEMERIS_TYPE":"0","COUNTRY_CODE":"US","MEAN_ANOMALY":"258.9611","OBJECT_ID":"2021-017BL","MEAN_MOTION":"15.06394795","EPOCH":"2021-09-04T17:04:42.564864","FILE":"3108751","ELEMENT_SET_NO":"999","GP_ID":"184106209","MEAN_MOTION_DDOT":"0.0000000000000","TLE_LINE1":"1 47780U 21017BL  21247.71160376 -.00001149  00000-0 -58262-4 0  9998","REF_FRAME":"TEME","CENTER_NAME":"EARTH","ARG_OF_PERICENTER":"101.1588","TIME_SYSTEM":"UTC","TLE_LINE2":"2 47780  53.0566  45.1843 0001861 101.1588 258.9611 15.06394795 29549","RA_OF_ASC_NODE":"45.1843","MEAN_ELEMENT_THEORY":"SGP4","REV_AT_EPOCH":"2954","BSTAR":"-0.00005826200000","ECCENTRICITY":"0.00018610","MEAN_MOTION_DOT":"-0.00001149","LAUNCH_DATE":"2021-03-04","PERIAPSIS":"545.941"},{"OBJECT_TYPE":"PAYLOAD","SITE":"AFETR","INCLINATION":"53.0568","RCS_SIZE":"LARGE","DECAY_DATE":null,"CLASSIFICATION_TYPE":"U","PERIOD":"95.592","APOAPSIS":"548.319","MEAN_ANOMALY":"257.1324","SEMIMAJOR_AXIS":"6925.339","OBJECT_NAME":"STARLINK-2223","COUNTRY_CODE":"US","EPHEMERIS_TYPE":"0","NORAD_CAT_ID":"47781","MEAN_MOTION_DDOT":"0.0000000000000","GP_ID":"184104458","TLE_LINE1":"1 47781U 21017BM  21247.48771377  .00000701  00000-0  65925-4 0  9997","ELEMENT_SET_NO":"999","OBJECT_ID":"2021-017BM","MEAN_MOTION":"15.06403047","EPOCH":"2021-09-04T11:42:18.469728","FILE":"3108751","ECCENTRICITY":"0.00016100","MEAN_MOTION_DOT":"0.00000701","PERIAPSIS":"546.089","LAUNCH_DATE":"2021-03-04","RA_OF_ASC_NODE":"46.1910","TLE_LINE2":"2 47781  53.0568  46.1910 0001610 102.9845 257.1324 15.06403047 29469","MEAN_ELEMENT_THEORY":"SGP4","REV_AT_EPOCH":"2946","BSTAR":"0.00006592500000","TIME_SYSTEM":"UTC","REF_FRAME":"TEME","CENTER_NAME":"EARTH","ARG_OF_PERICENTER":"102.9845"},{"FILE":"3108751","MEAN_MOTION":"15.06392422","EPOCH":"2021-09-04T16:55:27.782688","OBJECT_ID":"2021-018A","ELEMENT_SET_NO":"999","TLE_LINE1":"1 47787U 21018A   21247.70518267  .00000156  00000-0  29375-4 0  9999","MEAN_MOTION_DDOT":"0.0000000000000","GP_ID":"184104708","ARG_OF_PERICENTER":"72.2794","CENTER_NAME":"EARTH","REF_FRAME":"TEME","TIME_SYSTEM":"UTC","BSTAR":"0.00002937500000","MEAN_ELEMENT_THEORY":"SGP4","REV_AT_EPOCH":"2835","RA_OF_ASC_NODE":"85.2180","TLE_LINE2":"2 47787  53.0561  85.2180 0002040  72.2794 287.8418 15.06392422 28356","PERIAPSIS":"545.824","LAUNCH_DATE":"2021-03-11","ECCENTRICITY":"0.00020400","MEAN_MOTION_DOT":"0.00000156","APOAPSIS":"548.650","PERIOD":"95.593","CLASSIFICATION_TYPE":"U","RCS_SIZE":"LARGE","DECAY_DATE":null,"INCLINATION":"53.0561","SITE":"AFETR","OBJECT_TYPE":"PAYLOAD","NORAD_CAT_ID":"47787","COUNTRY_CODE":"US","EPHEMERIS_TYPE":"0","OBJECT_NAME":"STARLINK-2257","SEMIMAJOR_AXIS":"6925.372","MEAN_ANOMALY":"287.8418"},{"CLASSIFICATION_TYPE":"U","DECAY_DATE":null,"RCS_SIZE":"LARGE","APOAPSIS":"483.493","PERIOD":"94.257","OBJECT_TYPE":"PAYLOAD","INCLINATION":"53.0540","SITE":"AFETR","NORAD_CAT_ID":"47788","MEAN_ANOMALY":"295.6509","OBJECT_NAME":"STARLINK-2314","SEMIMAJOR_AXIS":"6860.729","COUNTRY_CODE":"US","EPHEMERIS_TYPE":"0","EPOCH":"2021-09-04T14:23:21.685056","MEAN_MOTION":"15.27732745","OBJECT_ID":"2021-018B","FILE":"3108751","GP_ID":"184105959","MEAN_MOTION_DDOT":"0.0000000000000","TLE_LINE1":"1 47788U 21018B   21247.59955654  .00001719  00000-0  75349-4 0  9990","ELEMENT_SET_NO":"999","TIME_SYSTEM":"UTC","REF_FRAME":"TEME","ARG_OF_PERICENTER":"64.4625","CENTER_NAME":"EARTH","MEAN_MOTION_DOT":"0.00001719","ECCENTRICITY":"0.00013110","PERIAPSIS":"481.694","LAUNCH_DATE":"2021-03-11","MEAN_ELEMENT_THEORY":"SGP4","REV_AT_EPOCH":"2863","TLE_LINE2":"2 47788  53.0540  65.5408 0001311  64.4625 295.6509 15.27732745 28632","RA_OF_ASC_NODE":"65.5408","BSTAR":"0.00007534900000"}];
